OBJECT_NAME,OBJECT_ID,EPOCH,MEAN_MOTION,ECCENTRICITY,INCLINATION,RA_OF_ASC_NODE,ARG_OF_PERICENTER,MEAN_ANOMALY,EPHEMERIS_TYPE,CLASSIFICATION_TYPE,NORAD_CAT_ID,ELEMENT_SET_NO,REV_AT_EPOCH,BSTAR,MEAN_MOTION_DOT,MEAN_MOTION_DDOT
FENGYUN 1C DEB,1999-025ANN,2021-02-27T10:22:39.360864,14.28514980,.0044335,99.0507,226.9214,340.1191,19.8260,0,U,30631,999,72776,.63316E-3,.1556E-4,0
FENGYUN 1C DEB,1999-025ANP,2021-02-27T03:00:37.581408,14.24154787,.0026503,98.8440,131.0810,285.3512,105.3235,0,U,30632,999,72595,.78338E-3,.1765E-4,0
FENGYUN 1C DEB,1999-025ANQ,2021-02-27T10:19:20.844768,13.97398545,.0140107,98.4198,33.4574,133.8220,351.5726,0,U,30633,999,71564,.28682E-3,.4E-5,0
FENGYUN 1C DEB,1999-025ANR,2021-02-27T19:10:27.174432,13.94076244,.0146302,99.2061,2.6768,211.5033,177.2415,0,U,30634,999,71278,.11934E-3,.127E-5,0
FENGYUN 1C DEB,1999-025ANT,2021-02-27T13:08:20.845536,15.10393768,.0053219,98.7178,168.0899,32.7741,327.6767,0,U,30636,999,75556,.69305E-3,.117E-3,0
FENGYUN 1C DEB,1999-025ANU,2021-02-27T19:35:48.446880,14.67294887,.0085662,98.9523,92.5650,278.3924,135.9258,0,U,30637,999,74505,.27854E-3,.1596E-4,0
FENGYUN 1C DEB,1999-025ANW,2021-02-27T03:14:44.043936,14.10192585,.0092381,99.0572,121.4696,211.7065,147.8521,0,U,30639,999,71936,.582E-3,.1026E-4,0
FENGYUN 1C DEB,1999-025ANX,2021-02-27T07:38:12.281280,14.04523065,.009006,99.2004,88.4257,300.4681,122.6804,0,U,30640,999,71824,.39814E-3,.612E-5,0
FENGYUN 1C DEB,1999-025ANY,2021-02-27T18:31:10.268832,14.62437791,.0176445,98.9310,164.8566,133.5975,22.9561,0,U,30641,999,74894,.91596E-4,.514E-5,0
FENGYUN 1C DEB,1999-025ANZ,2021-02-27T17:10:10.077024,14.67846297,.005837,99.0302,113.4328,79.8808,42.3557,0,U,30642,999,74333,.4656E-3,.2667E-4,0
FENGYUN 1C DEB,1999-025APC,2021-02-27T10:18:18.534816,15.06717484,.0030067,98.9453,219.2478,26.3309,358.8568,0,U,30645,999,75056,.83903E-3,.12529E-3,0
FENGYUN 1C DEB,1999-025APD,2021-02-27T09:15:45.820800,14.05312697,.004937,98.8278,117.0495,278.1648,81.3922,0,U,30646,999,72007,.17755E-3,.247E-5,0
FENGYUN 1C DEB,1999-025APE,2021-02-27T05:36:57.758976,14.28839717,.0046317,99.0680,244.1552,263.2261,150.9344,0,U,30647,999,72859,.38176E-3,.926E-5,0
FENGYUN 1C DEB,1999-025APF,2021-02-27T03:20:13.583904,14.25600960,.0048537,98.7272,129.1860,233.8098,155.9419,0,U,30648,999,72812,.37027E-3,.843E-5,0
FENGYUN 1C DEB,1999-025APG,2021-02-27T10:43:53.495616,14.14435703,.0064746,98.8759,136.5439,148.1224,224.8062,0,U,30649,999,72245,.36138E-3,.662E-5,0
FENGYUN 1C DEB,1999-025APH,2021-02-27T04:42:17.126784,14.03518659,.0084059,99.2102,39.4764,8.7231,2.6600,0,U,30650,999,71689,.25816E-3,.371E-5,0
FENGYUN 1C DEB,1999-025APJ,2021-02-27T08:30:33.666048,14.07095711,.0009243,99.0140,97.1135,130.2659,359.1668,0,U,30652,999,72087,.84482E-4,.97E-6,0
FENGYUN 1C DEB,1999-025APL,2021-02-27T12:42:54.129888,14.09265149,.003828,99.3576,259.2578,306.6247,53.1403,0,U,30654,999,72021,.26315E-3,.413E-5,0
FENGYUN 1C DEB,1999-025APM,2021-02-27T11:39:16.439616,14.28896376,.0021884,98.7845,23.8609,119.1956,0.9464,0,U,30655,999,72526,.59888E-3,.1471E-4,0
FENGYUN 1C DEB,1999-025APN,2021-02-27T18:30:18.747648,14.18274545,.0051017,98.9627,163.8624,100.3202,260.3730,0,U,30656,999,72225,.39102E-3,.77E-5,0
FENGYUN 1C DEB,1999-025APP,2021-02-27T10:07:54.217056,14.18849390,.0021429,98.9310,115.5567,9.5838,1.7774,0,U,30657,999,72314,.43698E-3,.866E-5,0
FENGYUN 1C DEB,1999-025APQ,2021-02-26T19:15:26.573760,13.77635357,.0200826,98.4304,249.2955,312.3931,46.0377,0,U,30658,999,70613,.56524E-3,.616E-5,0
FENGYUN 1C DEB,1999-025APR,2021-02-27T10:19:01.596576,14.83980649,.0148409,99.0356,303.5114,232.3826,302.7018,0,U,30659,999,75465,.16602E-3,.1596E-4,0
FENGYUN 1C DEB,1999-025APS,2021-02-27T09:44:45.973824,14.65548984,.0195109,98.2980,116.7949,143.1286,229.1493,0,U,30660,999,75039,.87466E-4,.567E-5,0
FENGYUN 1C DEB,1999-025APT,2021-02-27T20:20:47.747040,14.19377307,.0146528,99.4688,98.9690,295.0341,63.5680,0,U,30661,999,73104,.32365E-4,.24E-6,0
FENGYUN 1C DEB,1999-025APU,2021-02-26T22:12:08.895744,14.10941348,.0038947,99.1365,56.3843,170.1485,219.1940,0,U,30662,999,71910,.42783E-3,.727E-5,0
FENGYUN 1C DEB,1999-025APV,2021-02-27T13:11:23.450208,13.08781384,.0706213,99.3032,158.3635,345.1809,12.9521,0,U,30663,999,66080,.74596E-3,.844E-5,0
FENGYUN 1C DEB,1999-025APW,2021-02-27T09:15:12.378816,14.70793536,.0046477,99.0099,105.0506,48.1116,312.4037,0,U,30664,999,74096,.57324E-3,.3498E-4,0
FENGYUN 1C DEB,1999-025APX,2021-02-27T08:23:21.704928,14.00635546,.008477,99.0920,353.8731,10.9634,114.8000,0,U,30665,999,71407,.70773E-3,.1042E-4,0
FENGYUN 1C DEB,1999-025APY,2021-02-27T19:59:21.580224,14.00567587,.0058014,98.8409,84.5539,338.9112,194.5029,0,U,30666,999,71626,.39907E-4,.17E-6,0
FENGYUN 1C DEB,1999-025APZ,2021-02-27T08:48:37.631808,15.20603387,.0079684,98.8860,6.4082,135.6169,225.1485,0,U,30667,999,76004,.28112E-3,.6615E-4,0
FENGYUN 1C DEB,1999-025AQA,2021-02-27T07:50:53.676096,14.01607038,.0091615,99.2352,88.4096,58.6156,314.1684,0,U,30668,999,71481,.28604E-3,.404E-5,0
FENGYUN 1C DEB,1999-025AQB,2021-02-27T21:00:09.432288,13.92560106,.0139537,98.5762,90.6825,358.8421,175.7962,0,U,30669,999,71059,.4088E-3,.531E-5,0
FENGYUN 1C DEB,1999-025AQC,2021-02-27T08:38:41.710272,14.14900484,.0039519,98.9585,98.0102,12.0309,0.2099,0,U,30670,999,72408,.45825E-4,.44E-6,0
FENGYUN 1C DEB,1999-025AQD,2021-02-27T08:32:23.333568,13.88342267,.0137163,99.3868,95.8185,68.8110,59.4071,0,U,30671,999,70874,.4641E-3,.555E-5,0
FENGYUN 1C DEB,1999-025AQE,2021-02-27T18:25:56.312832,14.88984177,.005718,99.0605,243.7970,112.5038,248.2242,0,U,30672,999,74778,.50348E-3,.4809E-4,0
FENGYUN 1C DEB,1999-025AQF,2021-02-27T09:19:56.976960,14.02307178,.0051573,99.1599,99.2666,313.8471,171.2867,0,U,30673,999,72006,-.53774E-4,-.129E-5,0
FENGYUN 1C DEB,1999-025AQG,2021-02-27T01:05:19.753728,14.22033368,.0064575,98.9874,120.4551,73.4391,287.3866,0,U,30674,999,72193,.59736E-3,.1303E-4,0
FENGYUN 1C DEB,1999-025AQH,2021-02-27T17:32:17.154240,14.14199270,.0064661,98.8600,128.9099,144.0983,339.6929,0,U,30675,999,72123,.3669E-3,.67E-5,0
FENGYUN 1C DEB,1999-025AQJ,2021-02-27T08:47:27.908736,13.64903732,.0506319,98.2950,99.1795,67.2190,298.1625,0,U,30676,999,69999,.21453E-3,.385E-5,0
FENGYUN 1C DEB,1999-025AQK,2021-02-27T05:30:14.010048,14.24530992,.0077441,98.3579,160.5966,341.1133,48.2057,0,U,30677,999,72988,.25608E-3,.571E-5,0
FENGYUN 1C DEB,1999-025AQL,2021-02-27T06:17:35.225664,14.00948092,.0102433,99.0572,347.3965,85.3385,67.9505,0,U,30678,999,71243,.11391E-2,.1741E-4,0
FENGYUN 1C DEB,1999-025AQM,2021-02-27T07:21:28.179360,13.76736693,.0175309,99.5665,92.3130,349.1247,69.0113,0,U,30679,999,70427,.24162E-3,.22E-5,0
FENGYUN 1C DEB,1999-025AQN,2021-02-27T17:45:44.385984,13.41890868,.0369453,99.5186,154.5704,195.4317,163.5299,0,U,30680,999,68771,.24664E-2,.2028E-4,0
FENGYUN 1C DEB,1999-025AQR,2021-02-27T19:58:17.664960,13.90861091,.0157501,99.3316,19.7151,276.9286,111.1128,0,U,30683,999,71195,.2816E-3,.343E-5,0
FENGYUN 1C DEB,1999-025AQS,2021-02-27T14:15:53.214624,13.62920169,.0243253,99.6564,99.8846,61.2514,87.9341,0,U,30684,999,69876,.50819E-3,.442E-5,0
FENGYUN 1C DEB,1999-025AQU,2021-02-27T08:33:56.286144,14.50667965,.0203108,99.0547,85.6451,38.2473,334.6569,0,U,30686,999,74109,.72945E-4,.31E-5,0
FENGYUN 1C DEB,1999-025AQW,2021-02-27T03:55:39.644256,14.17796223,.0018291,98.8181,120.0491,339.2237,80.5584,0,U,30688,999,72378,.40302E-3,.779E-5,0
FENGYUN 1C DEB,1999-025AQX,2021-02-27T12:54:22.656672,14.08389429,.0115861,98.7018,86.2810,23.5855,129.2527,0,U,30689,999,72247,.13918E-3,.211E-5,0
FENGYUN 1C DEB,1999-025AQY,2021-02-27T17:15:01.104192,13.93585953,.0113256,99.1228,340.3422,181.9901,208.4859,0,U,30690,999,71326,.71365E-3,.944E-5,0
FENGYUN 1C DEB,1999-025AQZ,2021-02-27T17:48:16.325568,13.83912453,.0145614,98.8783,150.7340,300.9307,211.8427,0,U,30691,999,70935,.28406E-3,.3E-5,0
FENGYUN 1C DEB,1999-025ARB,2021-02-27T11:46:25.452768,14.10644707,.0031708,98.6702,85.0633,107.7712,252.6924,0,U,30693,999,72256,.12439E-3,.181E-5,0
FENGYUN 1C DEB,1999-025ARC,2021-02-27T06:49:23.329056,14.60606527,.0195811,99.0189,177.7328,293.1957,64.8723,0,U,30694,999,74426,.9988E-4,.564E-5,0
FENGYUN 1C DEB,1999-025ARE,2021-02-27T09:11:25.359360,14.33189123,.0104594,98.5809,109.8423,303.9962,66.4741,0,U,30696,999,73176,.19416E-3,.521E-5,0
FENGYUN 1C DEB,1999-025ARF,2021-02-27T16:49:23.952288,14.03781655,.0098479,99.0266,107.9222,44.1580,83.4037,0,U,30697,999,71659,.21953E-3,.317E-5,0
FENGYUN 1C DEB,1999-025ARH,2021-02-27T08:10:42.469248,14.24979520,.0002791,99.3364,24.4114,267.4047,92.6811,0,U,30699,999,72575,.37693E-3,.832E-5,0
FENGYUN 1C DEB,1999-025ARJ,2021-02-27T19:50:09.574944,14.21835480,.0089028,98.7551,98.6795,172.7339,187.5152,0,U,30700,999,72752,.5275E-4,.77E-6,0
FENGYUN 1C DEB,1999-025ARK,2021-02-27T09:31:17.232672,14.13802646,.0035249,98.9687,97.2004,33.4250,337.6816,0,U,30701,999,72400,.86716E-5,-.29E-6,0
FENGYUN 1C DEB,1999-025ARL,2021-02-27T15:24:01.209888,13.98647000,.0077194,98.9344,113.8786,115.6945,35.9772,0,U,30702,999,71797,-.10781E-3,-.201E-5,0
FENGYUN 1C DEB,1999-025ARM,2021-02-27T09:11:14.111808,14.08771858,.0135233,99.0012,0.5683,176.9458,307.9648,0,U,30703,999,71844,.1195E-3,.18E-5,0
FENGYUN 1C DEB,1999-025ARN,2021-02-27T19:04:55.622208,14.00264366,.0080336,98.9148,85.7290,278.2314,131.3878,0,U,30704,999,71651,.28481E-3,.389E-5,0
FENGYUN 1C DEB,1999-025ARP,2021-02-27T09:30:46.235808,13.71654700,.0219675,102.2036,20.0640,71.8115,78.3090,0,U,30705,999,69962,.11512E-2,.117E-4,0
FENGYUN 1C DEB,1999-025ARQ,2021-02-27T09:29:01.287456,14.18786987,.0031045,99.1665,230.2129,80.0131,280.4545,0,U,30706,999,72773,.21128E-3,.394E-5,0
FENGYUN 1C DEB,1999-025ARR,2021-02-27T18:46:39.061056,14.13113612,.0034124,99.3908,345.2413,304.4625,118.4090,0,U,30707,999,72063,.35384E-3,.616E-5,0
FENGYUN 1C DEB,1999-025ARS,2021-02-27T12:58:40.245312,14.10955399,.0009532,98.8499,92.9959,118.9069,40.8832,0,U,30708,999,72161,.72639E-4,.87E-6,0
